[{"OBJECT_NAME":"STARLINK-2647","OBJECT_ID":"2021-044W","EPOCH":"2026-03-09T09:45:53.125632","MEAN_MOTION":15.30203057,"ECCENTRICITY":0.00013929,"INCLINATION":53.1613,"RA_OF_ASC_NODE":115.1599,"ARG_OF_PERICENTER":82.0945,"MEAN_ANOMALY":278.0214,"EPHEMERIS_TYPE":0,"CLASSIFICATION_TYPE":"U","NORAD_CAT_ID":48658,"ELEMENT_SET_NO":999,"REV_AT_EPOCH":26378,"BSTAR":-2.315396e-6,"MEAN_MOTION_DOT":-4.28e-6,"MEAN_MOTION_DDOT":0},{"OBJECT_NAME":"FENGYUN 1C DEB","OBJECT_ID":"1999-025BZU","EPOCH":"2026-03-09T17:19:51.665664","MEAN_MOTION":15.28412118,"ECCENTRICITY":0.00188802,"INCLINATION":98.9598,"RA_OF_ASC_NODE":354.2029,"ARG_OF_PERICENTER":82.3682,"MEAN_ANOMALY":277.9697,"EPHEMERIS_TYPE":0,"CLASSIFICATION_TYPE":"U","NORAD_CAT_ID":31614,"ELEMENT_SET_NO":999,"REV_AT_EPOCH":97742,"BSTAR":0.011500831,"MEAN_MOTION_DOT":0.0033373,"MEAN_MOTION_DDOT":0}]
